{
  "version": 1,
  "fetchedAt": "2026-06-21T12:32:46.387Z",
  "source": "celestrak-gp",
  "counts": {
    "station": 24,
    "satellite": 520,
    "debris": 250
  },
  "objects": [
    {
      "id": "41038",
      "name": "YAOGAN-29",
      "noradId": 41038,
      "line1": "1 41038U 15069A   26172.15842579 -.00000042  00000+0  14580-5 0  9995",
      "line2": "2 41038  98.0023 200.7978 0002378  47.7090 312.4324 14.83086100571216",
      "category": "satellite"
    },
    {
      "id": "40010",
      "name": "KAZEOSAT 2",
      "noradId": 40010,
      "line1": "1 40010U 14033A   26172.20428880  .00000370  00000+0  48734-4 0  9995",
      "line2": "2 40010  97.5405  11.6035 0007522 315.2430  44.8179 14.85474351649551",
      "category": "satellite"
    },
    {
      "id": "40011",
      "name": "HODOYOSHI-4",
      "noradId": 40011,
      "line1": "1 40011U 14033B   26172.20294596  .00001265  00000+0  14253-3 0  9993",
      "line2": "2 40011  97.5454 356.8310 0022212 294.2622  65.6275 14.88135561649400",
      "category": "satellite"
    },
    {
      "id": "40013",
      "name": "DEIMOS-2",
      "noradId": 40013,
      "line1": "1 40013U 14033D   26172.13545409  .00001780  00000+0  17325-3 0  9994",
      "line2": "2 40013  97.5817  46.4850 0001420  59.0979 301.0381 14.93735704638310",
      "category": "satellite"
    },
    {
      "id": "40015",
      "name": "HODOYOSHI-3",
      "noradId": 40015,
      "line1": "1 40015U 14033F   26171.41846669  .00000763  00000+0  93914-4 0  9997",
      "line2": "2 40015  97.6421 334.3289 0032388 346.5693  13.4657 14.85393755648108",
      "category": "satellite"
    },
    {
      "id": "40053",
      "name": "SPOT 7",
      "noradId": 40053,
      "line1": "1 40053U 14034A   26172.15393763  .00000206  00000+0  51253-4 0  9996",
      "line2": "2 40053  98.0622 234.5437 0001271  96.4038 263.7308 14.60960987637713",
      "category": "satellite"
    },
    {
      "id": "40072",
      "name": "SKYSAT-B",
      "noradId": 40072,
      "line1": "1 40072U 14037D   26171.42007102  .00000964  00000+0  11167-3 0  9998",
      "line2": "2 40072  98.3840 130.5693 0004150 267.9415  92.1324 14.88034632646442",
      "category": "satellite"
    },
    {
      "id": "40115",
      "name": "WORLDVIEW-3 (WV-3)",
      "noradId": 40115,
      "line1": "1 40115U 14048A   26171.46899535  .00000601  00000+0  76637-4 0  9993",
      "line2": "2 40115  97.8566 246.2566 0000722  21.7214 338.4031 14.85026395642392",
      "category": "satellite"
    },
    {
      "id": "40118",
      "name": "GAOFEN-2",
      "noradId": 40118,
      "line1": "1 40118U 14049A   26172.16283709  .00000325  00000+0  49020-4 0  9994",
      "line2": "2 40118  98.0103 236.3666 0006383 211.3720 148.7112 14.80902125639829",
      "category": "satellite"
    },
    {
      "id": "40143",
      "name": "YAOGAN-21",
      "noradId": 40143,
      "line1": "1 40143U 14053A   26172.16153084  .00004202  00000+0  16382-3 0  9991",
      "line2": "2 40143  97.1471 212.2261 0009881  82.5951 277.6411 15.26420633655562",
      "category": "satellite"
    },
    {
      "id": "40275",
      "name": "YAOGAN-22",
      "noradId": 40275,
      "line1": "1 40275U 14063A   26171.37983304 -.00000017  00000+0  79445-4 0  9997",
      "line2": "2 40275 100.7729 322.7060 0006417 178.2010 181.9125 13.15531032560230",
      "category": "satellite"
    },
    {
      "id": "40298",
      "name": "ASNARO",
      "noradId": 40298,
      "line1": "1 40298U 14070A   26172.17645044  .00004294  00000+0  20546-3 0  9992",
      "line2": "2 40298  97.3444 248.1829 0006061 153.3263 206.8285 15.19480292644619",
      "category": "satellite"
    },
    {
      "id": "40310",
      "name": "YAOGAN-24",
      "noradId": 40310,
      "line1": "1 40310U 14072A   26172.21675334  .00000668  00000+0  10411-3 0  9990",
      "line2": "2 40310  98.1500 309.5887 0012598 249.1099 110.8762 14.76227245624313",
      "category": "satellite"
    },
    {
      "id": "40336",
      "name": "CBERS 4",
      "noradId": 40336,
      "line1": "1 40336U 14079A   26172.21932770 -.00000147  00000+0 -36497-4 0  9992",
      "line2": "2 40336  98.3525 228.9247 0001687  61.4491 298.6865 14.35509198604538",
      "category": "satellite"
    },
    {
      "id": "40362",
      "name": "YAOGAN-26",
      "noradId": 40362,
      "line1": "1 40362U 14088A   26172.20755124  .00022596  00000+0  44081-3 0  9993",
      "line2": "2 40362  97.0641 172.3231 0005632  58.8756 301.3047 15.47495683638320",
      "category": "satellite"
    },
    {
      "id": "40376",
      "name": "SMAP",
      "noradId": 40376,
      "line1": "1 40376U 15003A   26171.43033080  .00000302  00000+0  67443-4 0  9999",
      "line2": "2 40376  98.1276 178.4790 0001362  97.1421 262.9936 14.63368901608098",
      "category": "satellite"
    },
    {
      "id": "40536",
      "name": "KOMPSAT-3A",
      "noradId": 40536,
      "line1": "1 40536U 15014A   26172.23400637  .00020451  00000+0  29424-3 0  9997",
      "line2": "2 40536  97.6889 163.8924 0056908 159.9178 200.4333 15.54157822622441",
      "category": "satellite"
    },
    {
      "id": "40697",
      "name": "SENTINEL-2A",
      "noradId": 40697,
      "line1": "1 40697U 15028A   26172.20070978 -.00000138  00000+0 -36130-4 0  9993",
      "line2": "2 40697  98.5679 246.9956 0001108  95.1106 265.0204 14.30815689574308",
      "category": "satellite"
    },
    {
      "id": "40701",
      "name": "GAOFEN-8",
      "noradId": 40701,
      "line1": "1 40701U 15030A   26172.16541786  .00015451  00000+0  31723-3 0  9991",
      "line2": "2 40701  97.6906   5.7742 0009026 171.9777 188.1617 15.46074340612063",
      "category": "satellite"
    },
    {
      "id": "40718",
      "name": "CARBONITE 1 (CBNT-1)",
      "noradId": 40718,
      "line1": "1 40718U 15032D   26172.16179204  .00000614  00000+0  80531-4 0  9990",
      "line2": "2 40718  97.6513 350.0611 0013054 283.6433  76.3328 14.83594079589934",
      "category": "satellite"
    },
    {
      "id": "40878",
      "name": "YAOGAN-27",
      "noradId": 40878,
      "line1": "1 40878U 15040A   26172.20970546 -.00000256  00000+0 -56308-3 0  9997",
      "line2": "2 40878 100.1159 158.4184 0007784 200.7041 159.3759 13.16069640518196",
      "category": "satellite"
    },
    {
      "id": "40894",
      "name": "GAOFEN-9 01",
      "noradId": 40894,
      "line1": "1 40894U 15047A   26172.17871752  .00000670  00000+0  88314-4 0  9998",
      "line2": "2 40894  97.6278 207.6922 0028636 125.2641 235.1259 14.82889967580787",
      "category": "satellite"
    },
    {
      "id": "41026",
      "name": "YAOGAN-28",
      "noradId": 41026,
      "line1": "1 41026U 15064A   26172.18791836  .00005549  00000+0  20886-3 0  9999",
      "line2": "2 41026  97.3081 310.3681 0011004 169.4103 190.7371 15.27462351591295",
      "category": "satellite"
    },
    {
      "id": "41167",
      "name": "KENT RIDGE 1",
      "noradId": 41167,
      "line1": "1 41167U 15077B   26171.56866066  .00003339  00000+0  10583-3 0  9996",
      "line2": "2 41167  14.9790 240.8421 0008246 286.2551  73.6864 15.23149174581613",
      "category": "satellite"
    },
    {
      "id": "41194",
      "name": "GAOFEN-4",
      "noradId": 41194,
      "line1": "1 41194U 15083A   26172.16642169 -.00000337  00000+0  00000+0 0  9991",
      "line2": "2 41194   0.3692  83.8067 0004206 118.6483 232.5171  1.00272874 38560",
      "category": "satellite"
    },
    {
      "id": "41240",
      "name": "JASON-3",
      "noradId": 41240,
      "line1": "1 41240U 16002A   26171.42010391 -.00000038  00000+0  96061-4 0  9994",
      "line2": "2 41240  66.0406 119.0381 0008478 272.6497  87.3551 12.87628140487661",
      "category": "satellite"
    },
    {
      "id": "41335",
      "name": "SENTINEL-3A",
      "noradId": 41335,
      "line1": "1 41335U 16011A   26171.44253080  .00000048  00000+0  37722-4 0  9994",
      "line2": "2 41335  98.6248 238.7795 0001418  99.3701 260.7640 14.26733412538520",
      "category": "satellite"
    },
    {
      "id": "41556",
      "name": "ZIYUAN 3-02 (ZY 3-02)",
      "noradId": 41556,
      "line1": "1 41556U 16033A   26172.20208299  .00003859  00000+0  17576-3 0  9997",
      "line2": "2 41556  97.3831 247.9001 0012378 275.8269  84.1555 15.21211041558595",
      "category": "satellite"
    },
    {
      "id": "41599",
      "name": "CARTOSAT-2C",
      "noradId": 41599,
      "line1": "1 41599U 16040A   26172.14421235  .00003594  00000+0  17370-3 0  9990",
      "line2": "2 41599  97.4479 232.0678 0010371 119.0975 241.1299 15.19218323554313",
      "category": "satellite"
    },
    {
      "id": "41601",
      "name": "SKYSAT-C1",
      "noradId": 41601,
      "line1": "1 41601U 16040C   26171.34273712  .00007564  00000+0  21549-3 0  9994",
      "line2": "2 41601  96.9560 202.8917 0003195  52.2877 307.8658 15.36345796558359",
      "category": "satellite"
    },
    {
      "id": "41603",
      "name": "LAPAN-A3",
      "noradId": 41603,
      "line1": "1 41603U 16040E   26172.23783620  .00002603  00000+0  83573-4 0  9994",
      "line2": "2 41603  97.1492 168.2503 0010389  12.1031 348.0460 15.33126076555433",
      "category": "satellite"
    }
  ]
}