OBJECT_NAME,OBJECT_ID,EPOCH,MEAN_MOTION,ECCENTRICITY,INCLINATION,RA_OF_ASC_NODE,ARG_OF_PERICENTER,MEAN_ANOMALY,EPHEMERIS_TYPE,CLASSIFICATION_TYPE,NORAD_CAT_ID,ELEMENT_SET_NO,REV_AT_EPOCH,BSTAR,MEAN_MOTION_DOT,MEAN_MOTION_DDOT
KAZEOSAT 2,2014-033A,2026-06-21T04:54:10.552320,14.85474351,.0007522,97.5405,11.6035,315.2430,44.8179,0,U,40010,999,64955,.48734E-4,.37E-5,0
HODOYOSHI-4,2014-033B,2026-06-21T04:52:14.530944,14.88135561,.0022212,97.5454,356.8310,294.2622,65.6275,0,U,40011,999,64940,.14253E-3,.1265E-4,0
DEIMOS-2,2014-033D,2026-06-21T03:15:03.233376,14.93735704,.000142,97.5817,46.4850,59.0979,301.0381,0,U,40013,999,63831,.17325E-3,.178E-4,0
HODOYOSHI-3,2014-033F,2026-06-20T10:02:35.522016,14.85393755,.0032388,97.6421,334.3289,346.5693,13.4657,0,U,40015,999,64810,.93914E-4,.763E-5,0
SPOT 7,2014-034A,2026-06-21T03:41:40.211232,14.60960987,.0001271,98.0622,234.5437,96.4038,263.7308,0,U,40053,999,63771,.51253E-4,.206E-5,0
SKYSAT-B,2014-037D,2026-06-20T10:04:54.136128,14.88034632,.000415,98.3840,130.5693,267.9415,92.1324,0,U,40072,999,64644,.11167E-3,.964E-5,0
WORLDVIEW-3 (WV-3),2014-048A,2026-06-20T11:15:21.198240,14.85026395,.0000722,97.8566,246.2566,21.7214,338.4031,0,U,40115,999,64239,.76637E-4,.601E-5,0
GAOFEN-2,2014-049A,2026-06-21T03:54:29.124576,14.80902125,.0006383,98.0103,236.3666,211.3720,148.7112,0,U,40118,999,63982,.4902E-4,.325E-5,0
YAOGAN-21,2014-053A,2026-06-21T03:52:36.264576,15.26420633,.0009881,97.1471,212.2261,82.5951,277.6411,0,U,40143,999,65556,.16382E-3,.4202E-4,0
YAOGAN-22,2014-063A,2026-06-20T09:06:57.574656,13.15531032,.0006417,100.7729,322.7060,178.2010,181.9125,0,U,40275,999,56023,.79445E-4,-.17E-6,0
ASNARO,2014-070A,2026-06-21T04:14:05.318016,15.19480292,.0006061,97.3444,248.1829,153.3263,206.8285,0,U,40298,999,64461,.20546E-3,.4294E-4,0
YAOGAN-24,2014-072A,2026-06-21T05:12:07.488576,14.76227245,.0012598,98.1500,309.5887,249.1099,110.8762,0,U,40310,999,62431,.10411E-3,.668E-5,0
CBERS 4,2014-079A,2026-06-21T05:15:49.913280,14.35509198,.0001687,98.3525,228.9247,61.4491,298.6865,0,U,40336,999,60453,-.36497E-4,-.147E-5,0
YAOGAN-26,2014-088A,2026-06-21T04:58:52.427136,15.47495683,.0005632,97.0641,172.3231,58.8756,301.3047,0,U,40362,999,63832,.44081E-3,.22596E-3,0
SMAP,2015-003A,2026-06-20T10:19:40.581120,14.63368901,.0001362,98.1276,178.4790,97.1421,262.9936,0,U,40376,999,60809,.67443E-4,.302E-5,0
KOMPSAT-3A,2015-014A,2026-06-21T05:36:58.150368,15.54157822,.0056908,97.6889,163.8924,159.9178,200.4333,0,U,40536,999,62244,.29424E-3,.20451E-3,0
SENTINEL-2A,2015-028A,2026-06-21T04:49:01.324992,14.30815689,.0001108,98.5679,246.9956,95.1106,265.0204,0,U,40697,999,57430,-.3613E-4,-.138E-5,0
GAOFEN-8,2015-030A,2026-06-21T03:58:12.103104,15.46074340,.0009026,97.6906,5.7742,171.9777,188.1617,0,U,40701,999,61206,.31723E-3,.15451E-3,0
CARBONITE 1 (CBNT-1),2015-032D,2026-06-21T03:52:58.832256,14.83594079,.0013054,97.6513,350.0611,283.6433,76.3328,0,U,40718,999,58993,.80531E-4,.614E-5,0
YAOGAN-27,2015-040A,2026-06-21T05:01:58.551744,13.16069640,.0007784,100.1159,158.4184,200.7041,159.3759,0,U,40878,999,51819,-.56308E-3,-.256E-5,0
GAOFEN-9 01,2015-047A,2026-06-21T04:17:21.193728,14.82889967,.0028636,97.6278,207.6922,125.2641,235.1259,0,U,40894,999,58078,.88314E-4,.67E-5,0
YAOGAN-28,2015-064A,2026-06-21T04:30:36.146304,15.27462351,.0011004,97.3081,310.3681,169.4103,190.7371,0,U,41026,999,59129,.20886E-3,.5549E-4,0
YAOGAN-29,2015-069A,2026-06-21T03:48:07.988256,14.83086100,.0002378,98.0023,200.7978,47.7090,312.4324,0,U,41038,999,57121,.1458E-5,-.42E-6,0
KENT RIDGE 1,2015-077B,2026-06-20T13:38:52.281024,15.23149174,.0008246,14.9790,240.8421,286.2551,73.6864,0,U,41167,999,58161,.10583E-3,.3339E-4,0
GAOFEN-4,2015-083A,2026-06-21T03:59:38.834016,1.00272874,.0004206,0.3692,83.8067,118.6483,232.5171,0,U,41194,999,3856,0,-.337E-5,0
JASON-3,2016-002A,2026-06-20T10:04:56.977824,12.87628140,.0008478,66.0406,119.0381,272.6497,87.3551,0,U,41240,999,48766,.96061E-4,-.38E-6,0
SENTINEL-3A,2016-011A,2026-06-20T10:37:14.661120,14.26733412,.0001418,98.6248,238.7795,99.3701,260.7640,0,U,41335,999,53852,.37722E-4,.48E-6,0
ZIYUAN 3-02 (ZY 3-02),2016-033A,2026-06-21T04:50:59.970336,15.21211041,.0012378,97.3831,247.9001,275.8269,84.1555,0,U,41556,999,55859,.17576E-3,.3859E-4,0
CARTOSAT-2C,2016-040A,2026-06-21T03:27:39.947040,15.19218323,.0010371,97.4479,232.0678,119.0975,241.1299,0,U,41599,999,55431,.1737E-3,.3594E-4,0
SKYSAT-C1,2016-040C,2026-06-20T08:13:32.487168,15.36345796,.0003195,96.9560,202.8917,52.2877,307.8658,0,U,41601,999,55835,.21549E-3,.7564E-4,0
LAPAN-A3,2016-040E,2026-06-21T05:42:29.047680,15.33126076,.0010389,97.1492,168.2503,12.1031,348.0460,0,U,41603,999,55543,.83573E-4,.2603E-4,0
